[{"OBJECT_NAME":"STARLINK-34974","OBJECT_ID":"2025-176Z","EPOCH":"2026-03-09T12:01:51.623616","MEAN_MOTION":15.30183839,"ECCENTRICITY":0.00011865,"INCLINATION":53.1594,"RA_OF_ASC_NODE":153.4555,"ARG_OF_PERICENTER":69.6501,"MEAN_ANOMALY":290.4627,"EPHEMERIS_TYPE":0,"CLASSIFICATION_TYPE":"U","NORAD_CAT_ID":65221,"ELEMENT_SET_NO":999,"REV_AT_EPOCH":3309,"BSTAR":0.00079574997,"MEAN_MOTION_DOT":0.00023271,"MEAN_MOTION_DDOT":0},{"OBJECT_NAME":"CZ-4B DEB","OBJECT_ID":"2006-015E","EPOCH":"2026-03-09T20:34:53.082912","MEAN_MOTION":15.19885806,"ECCENTRICITY":0.00461993,"INCLINATION":98.0565,"RA_OF_ASC_NODE":201.7753,"ARG_OF_PERICENTER":62.4887,"MEAN_ANOMALY":298.1031,"EPHEMERIS_TYPE":0,"CLASSIFICATION_TYPE":"U","NORAD_CAT_ID":29538,"ELEMENT_SET_NO":999,"REV_AT_EPOCH":5389,"BSTAR":0.0022587151,"MEAN_MOTION_DOT":0.00050103,"MEAN_MOTION_DDOT":0}]
